[{"OBJECT_NAME":"UTMN 2 (RS27S)","OBJECT_ID":"2023-091AP","EPOCH":"2026-03-09T23:09:07.917408","MEAN_MOTION":15.29495965,"ECCENTRICITY":0.00097379,"INCLINATION":97.5194,"RA_OF_ASC_NODE":134.949,"ARG_OF_PERICENTER":76.0788,"MEAN_ANOMALY":284.1534,"EPHEMERIS_TYPE":0,"CLASSIFICATION_TYPE":"U","NORAD_CAT_ID":57203,"ELEMENT_SET_NO":999,"REV_AT_EPOCH":14936,"BSTAR":0.00056135701,"MEAN_MOTION_DOT":0.00016013,"MEAN_MOTION_DDOT":0},{"OBJECT_NAME":"STARLINK-30914","OBJECT_ID":"2023-178D","EPOCH":"2026-03-09T22:51:21.550464","MEAN_MOTION":15.30181575,"ECCENTRICITY":0.00011197,"INCLINATION":53.1612,"RA_OF_ASC_NODE":359.6999,"ARG_OF_PERICENTER":68.5239,"MEAN_ANOMALY":291.5881,"EPHEMERIS_TYPE":0,"CLASSIFICATION_TYPE":"U","NORAD_CAT_ID":58377,"ELEMENT_SET_NO":999,"REV_AT_EPOCH":12993,"BSTAR":0.00020649459,"MEAN_MOTION_DOT":5.758e-5,"MEAN_MOTION_DDOT":0}]
